start=new Date('2023-04-03T00:00:00.000Z').valueOf();
sats=[{"TLE_LINE1":"1 52840U 22062L   23092.91214658  .00002567  00000-0  17929-3 0  9994","TLE_LINE2":"2 52840  53.2149 165.5174 0001142 133.8038 226.3048 15.08840151 43980","ECCENTRICITY":"0.00011420","OBJECT_ID":"2022-062L","EPHEMERIS_TYPE":"0","REV_AT_EPOCH":"4398","OBJECT_TYPE":"PAYLOAD","DECAY_DATE":null,"ELEMENT_SET_NO":"999","BSTAR":"0.00017929000000","MEAN_ANOMALY":"226.3048","NORAD_CAT_ID":"52840","TIME_SYSTEM":"UTC","LAUNCH_DATE":"2022-06-17","PERIOD":"95.438","SEMIMAJOR_AXIS":"6917.880","RCS_SIZE":"LARGE","OBJECT_NAME":"STARLINK-4049","SITE":"AFETR","MEAN_MOTION":"15.08840151","MEAN_MOTION_DOT":"0.00002567","MEAN_MOTION_DDOT":"0.0000000000000","MEAN_ELEMENT_THEORY":"SGP4","REF_FRAME":"TEME","CENTER_NAME":"EARTH","INCLINATION":"53.2149","CLASSIFICATION_TYPE":"U","RA_OF_ASC_NODE":"165.5174","PERIAPSIS":"538.955","EPOCH":"2023-04-02T21:53:29.464512","APOAPSIS":"540.535","GP_ID":"229353240","COUNTRY_CODE":"US","ARG_OF_PERICENTER":"133.8038","FILE":"3878419"},{"REF_FRAME":"TEME","CENTER_NAME":"EARTH","INCLINATION":"53.2155","SITE":"AFETR","MEAN_MOTION":"15.08836791","MEAN_MOTION_DOT":"-0.00013375","MEAN_MOTION_DDOT":"0.0000000000000","MEAN_ELEMENT_THEORY":"SGP4","GP_ID":"229352511","COUNTRY_CODE":"US","ARG_OF_PERICENTER":"138.5821","FILE":"3878419","CLASSIFICATION_TYPE":"U","RA_OF_ASC_NODE":"165.5828","PERIAPSIS":"539.154","EPOCH":"2023-04-02T21:32:17.657376","APOAPSIS":"540.356","DECAY_DATE":null,"OBJECT_TYPE":"PAYLOAD","ELEMENT_SET_NO":"999","BSTAR":"-0.00082391000000","TLE_LINE1":"1 52841U 22062M   23092.89742659 -.00013375  00000-0 -82391-3 0  9995","TLE_LINE2":"2 52841  53.2155 165.5828 0000869 138.5821 221.5237 15.08836791 43983","ECCENTRICITY":"0.00008690","OBJECT_ID":"2022-062M","REV_AT_EPOCH":"4398","EPHEMERIS_TYPE":"0","PERIOD":"95.438","SEMIMAJOR_AXIS":"6917.890","RCS_SIZE":"LARGE","OBJECT_NAME":"STARLINK-4065","MEAN_ANOMALY":"221.5237","NORAD_CAT_ID":"52841","TIME_SYSTEM":"UTC","LAUNCH_DATE":"2022-06-17"},{"ECCENTRICITY":"0.00016370","TLE_LINE2":"2 52842  53.2160 165.4885 0001637  81.2073 278.9104 15.08848711 43983","TLE_LINE1":"1 52842U 22062N   23092.92046914  .00004746  00000-0  31599-3 0  9995","REV_AT_EPOCH":"4398","EPHEMERIS_TYPE":"0","OBJECT_ID":"2022-062N","DECAY_DATE":null,"OBJECT_TYPE":"PAYLOAD","BSTAR":"0.00031599000000","ELEMENT_SET_NO":"999","TIME_SYSTEM":"UTC","NORAD_CAT_ID":"52842","MEAN_ANOMALY":"278.9104","LAUNCH_DATE":"2022-06-17","SEMIMAJOR_AXIS":"6917.854","PERIOD":"95.437","OBJECT_NAME":"STARLINK-4046","RCS_SIZE":"LARGE","SITE":"AFETR","MEAN_ELEMENT_THEORY":"SGP4","MEAN_MOTION_DDOT":"0.0000000000000","MEAN_MOTION_DOT":"0.00004746","MEAN_MOTION":"15.08848711","CENTER_NAME":"EARTH","REF_FRAME":"TEME","INCLINATION":"53.2160","RA_OF_ASC_NODE":"165.4885","CLASSIFICATION_TYPE":"U","EPOCH":"2023-04-02T22:05:28.533696","APOAPSIS":"540.851","PERIAPSIS":"538.586","COUNTRY_CODE":"US","GP_ID":"229352761","FILE":"3878419","ARG_OF_PERICENTER":"81.2073"},{"ELEMENT_SET_NO":"999","BSTAR":"0.00020045000000","DECAY_DATE":null,"OBJECT_TYPE":"PAYLOAD","OBJECT_ID":"2022-062P","EPHEMERIS_TYPE":"0","REV_AT_EPOCH":"4398","TLE_LINE1":"1 52843U 22062P   23092.89006795  .00002904  00000-0  20045-3 0  9993","ECCENTRICITY":"0.00014510","TLE_LINE2":"2 52843  53.2162 165.6180 0001451  87.8422 272.2736 15.08844373 43988","OBJECT_NAME":"STARLINK-4188","RCS_SIZE":"LARGE","PERIOD":"95.437","SEMIMAJOR_AXIS":"6917.867","LAUNCH_DATE":"2022-06-17","MEAN_ANOMALY":"272.2736","TIME_SYSTEM":"UTC","NORAD_CAT_ID":"52843","INCLINATION":"53.2162","REF_FRAME":"TEME","CENTER_NAME":"EARTH","MEAN_MOTION_DDOT":"0.0000000000000","MEAN_MOTION_DOT":"0.00002904","MEAN_MOTION":"15.08844373","MEAN_ELEMENT_THEORY":"SGP4","SITE":"AFETR","ARG_OF_PERICENTER":"87.8422","FILE":"3878419","GP_ID":"229353012","COUNTRY_CODE":"US","PERIAPSIS":"538.728","APOAPSIS":"540.736","EPOCH":"2023-04-02T21:21:41.870880","RA_OF_ASC_NODE":"165.6180","CLASSIFICATION_TYPE":"U"},{"TLE_LINE1":"1 52844U 22062Q   23092.90479111  .00009185  00000-0  59435-3 0  9995","ECCENTRICITY":"0.00013420","TLE_LINE2":"2 52844  53.2154 165.5513 0001342 104.9141 255.1999 15.08844461 43986","OBJECT_ID":"2022-062Q","REV_AT_EPOCH":"4398","EPHEMERIS_TYPE":"0","OBJECT_TYPE":"PAYLOAD","DECAY_DATE":null,"ELEMENT_SET_NO":"999","BSTAR":"0.00059435000000","MEAN_ANOMALY":"255.1999","TIME_SYSTEM":"UTC","NORAD_CAT_ID":"52844","LAUNCH_DATE":"2022-06-17","SEMIMAJOR_AXIS":"6917.867","PERIOD":"95.437","RCS_SIZE":"LARGE","OBJECT_NAME":"STARLINK-4208","SITE":"AFETR","MEAN_MOTION_DOT":"0.00009185","MEAN_MOTION_DDOT":"0.0000000000000","MEAN_MOTION":"15.08844461","MEAN_ELEMENT_THEORY":"SGP4","REF_FRAME":"TEME","CENTER_NAME":"EARTH","INCLINATION":"53.2154","RA_OF_ASC_NODE":"165.5513","CLASSIFICATION_TYPE":"U","PERIAPSIS":"538.803","EPOCH":"2023-04-02T21:42:53.951904","APOAPSIS":"540.660","GP_ID":"229353740","COUNTRY_CODE":"US","ARG_OF_PERICENTER":"104.9141","FILE":"3878419"},{"FILE":"3878419","ARG_OF_PERICENTER":"87.8354","COUNTRY_CODE":"US","GP_ID":"229352011","APOAPSIS":"540.483","EPOCH":"2023-04-02T21:27:00.330048","PERIAPSIS":"538.983","CLASSIFICATION_TYPE":"U","RA_OF_ASC_NODE":"165.6581","INCLINATION":"53.2147","CENTER_NAME":"EARTH","REF_FRAME":"TEME","MEAN_ELEMENT_THEORY":"SGP4","MEAN_MOTION":"15.08844099","MEAN_MOTION_DDOT":"0.0000000000000","MEAN_MOTION_DOT":"0.00001216","SITE":"AFETR","RCS_SIZE":"LARGE","OBJECT_NAME":"STARLINK-4168","PERIOD":"95.437","SEMIMAJOR_AXIS":"6917.868","LAUNCH_DATE":"2022-06-17","NORAD_CAT_ID":"52845","TIME_SYSTEM":"UTC","MEAN_ANOMALY":"272.2762","BSTAR":"0.00009443600000","ELEMENT_SET_NO":"999","DECAY_DATE":null,"OBJECT_TYPE":"PAYLOAD","REV_AT_EPOCH":"4398","EPHEMERIS_TYPE":"0","OBJECT_ID":"2022-062R","TLE_LINE2":"2 52845  53.2147 165.6581 0001084  87.8354 272.2762 15.08844099 43988","ECCENTRICITY":"0.00010840","TLE_LINE1":"1 52845U 22062R   23092.89375382  .00001216  00000-0  94436-4 0  9997"},{"SITE":"AFETR","MEAN_MOTION":"15.08836985","MEAN_MOTION_DDOT":"0.0000000000000","MEAN_MOTION_DOT":"-0.00004778","MEAN_ELEMENT_THEORY":"SGP4","REF_FRAME":"TEME","CENTER_NAME":"EARTH","INCLINATION":"53.2159","CLASSIFICATION_TYPE":"U","RA_OF_ASC_NODE":"165.6047","PERIAPSIS":"538.804","EPOCH":"2023-04-02T21:28:22.919808","APOAPSIS":"540.705","GP_ID":"229352261","COUNTRY_CODE":"US","ARG_OF_PERICENTER":"103.4048","FILE":"3878419","TLE_LINE1":"1 52846U 22062S   23092.89470972 -.00004778  00000-0 -28234-3 0  9999","TLE_LINE2":"2 52846  53.2159 165.6047 0001374 103.4048 256.7097 15.08836985 43989","ECCENTRICITY":"0.00013740","OBJECT_ID":"2022-062S","EPHEMERIS_TYPE":"0","REV_AT_EPOCH":"4398","OBJECT_TYPE":"PAYLOAD","DECAY_DATE":null,"ELEMENT_SET_NO":"999","BSTAR":"-0.00028234000000","MEAN_ANOMALY":"256.7097","NORAD_CAT_ID":"52846","TIME_SYSTEM":"UTC","LAUNCH_DATE":"2022-06-17","PERIOD":"95.438","SEMIMAJOR_AXIS":"6917.890","OBJECT_NAME":"STARLINK-4212","RCS_SIZE":"LARGE"},{"FILE":"3878419","ARG_OF_PERICENTER":"91.8579","COUNTRY_CODE":"US","GP_ID":"229353512","APOAPSIS":"540.597","EPOCH":"2023-04-02T14:49:33.467808","PERIAPSIS":"538.754","RA_OF_ASC_NODE":"166.8363","CLASSIFICATION_TYPE":"U","INCLINATION":"53.2159","CENTER_NAME":"EARTH","REF_FRAME":"TEME","MEAN_ELEMENT_THEORY":"SGP4","MEAN_MOTION_DDOT":"0.0000000000000","MEAN_MOTION_DOT":"0.00024892","MEAN_MOTION":"15.08862804","SITE":"AFETR","RCS_SIZE":"LARGE","OBJECT_NAME":"STARLINK-4206","PERIOD":"95.436","SEMIMAJOR_AXIS":"6917.811","LAUNCH_DATE":"2022-06-17","TIME_SYSTEM":"UTC","NORAD_CAT_ID":"52847","MEAN_ANOMALY":"268.2566","BSTAR":"0.00157560000000","ELEMENT_SET_NO":"999","DECAY_DATE":null,"OBJECT_TYPE":"PAYLOAD","REV_AT_EPOCH":"4394","EPHEMERIS_TYPE":"0","OBJECT_ID":"2022-062T","ECCENTRICITY":"0.00013320","TLE_LINE2":"2 52847  53.2159 166.8363 0001332  91.8579 268.2566 15.08862804 43941","TLE_LINE1":"1 52847U 22062T   23092.61774847  .00024892  00000-0  15756-2 0  9999"},{"SEMIMAJOR_AXIS":"6917.809","PERIOD":"95.436","RCS_SIZE":"LARGE","OBJECT_NAME":"STARLINK-4202","MEAN_ANOMALY":"138.4698","NORAD_CAT_ID":"52848","TIME_SYSTEM":"UTC","LAUNCH_DATE":"2022-06-17","DECAY_DATE":null,"OBJECT_TYPE":"PAYLOAD","ELEMENT_SET_NO":"999","BSTAR":"0.00004089600000","TLE_LINE1":"1 52848U 22062U   23092.90109510  .00000363  00000-0  40896-4 0  9993","TLE_LINE2":"2 52848  53.2154 165.5646 0001429 221.6185 138.4698 15.08863360 43986","ECCENTRICITY":"0.00014290","OBJECT_ID":"2022-062U","EPHEMERIS_TYPE":"0","REV_AT_EPOCH":"4398","GP_ID":"229353241","COUNTRY_CODE":"US","ARG_OF_PERICENTER":"221.6185","FILE":"3878419","CLASSIFICATION_TYPE":"U","RA_OF_ASC_NODE":"165.5646","PERIAPSIS":"538.685","APOAPSIS":"540.663","EPOCH":"2023-04-02T21:37:34.616640","REF_FRAME":"TEME","CENTER_NAME":"EARTH","INCLINATION":"53.2154","SITE":"AFETR","MEAN_MOTION":"15.08863360","MEAN_MOTION_DDOT":"0.0000000000000","MEAN_MOTION_DOT":"0.00000363","MEAN_ELEMENT_THEORY":"SGP4"},{"PERIOD":"95.438","SEMIMAJOR_AXIS":"6917.910","RCS_SIZE":"LARGE","OBJECT_NAME":"STARLINK-4197","NORAD_CAT_ID":"52849","TIME_SYSTEM":"UTC","MEAN_ANOMALY":"242.9799","LAUNCH_DATE":"2022-06-17","DECAY_DATE":null,"OBJECT_TYPE":"PAYLOAD","BSTAR":"-0.00009871900000","ELEMENT_SET_NO":"999","TLE_LINE2":"2 52849  53.2139 155.6799 0001067 117.1302 242.9799 15.08830446 44115","ECCENTRICITY":"0.00010670","TLE_LINE1":"1 52849U 22062V   23092.87626674 -.00001858  00000-0 -98719-4 0  9994","EPHEMERIS_TYPE":"0","REV_AT_EPOCH":"4411","OBJECT_ID":"2022-062V","COUNTRY_CODE":"US","GP_ID":"229352512","FILE":"3878419","ARG_OF_PERICENTER":"117.1302","CLASSIFICATION_TYPE":"U","RA_OF_ASC_NODE":"155.6799","APOAPSIS":"540.513","EPOCH":"2023-04-02T21:01:49.446336","PERIAPSIS":"539.036","CENTER_NAME":"EARTH","REF_FRAME":"TEME","INCLINATION":"53.2139","SITE":"AFETR","MEAN_ELEMENT_THEORY":"SGP4","MEAN_MOTION":"15.08830446","MEAN_MOTION_DOT":"-0.00001858","MEAN_MOTION_DDOT":"0.0000000000000"}];
